{
    "week": 295,
    "satellites": [
        {
            "Name": "COSMOS 2433 (720)",
            "Line1": "1 32275U 07052A   24335.33642445 -.00000038  00000+0  00000+0 0  9991",
            "Line2": "2 32275  65.8687 334.8442 0005754 254.3044 105.6600  2.13104109133042",
            "SatelliteNumber": "32275",
            "Classification": "U",
            "LaunchYear": "07",
            "LaunchNumber": "052",
            "PieceOfLaunch": "A",
            "EpochYear": "24",
            "EpochDay": 335.33642445,
            "FirstDerivativeMeanMotion": -3.8e-07,
            "SecondDerivativeMeanMotion": "00000+0",
            "BSTAR": "00000+0",
            "SetNumber": "999",
            "Inclination": 65.8687,
            "RAAN": 334.8442,
            "Eccentricity": 0.0005754,
            "ArgumentOfPerigee": 254.3044,
            "MeanAnomaly": 105.66,
            "MeanMotion": 2.13104109,
            "RevolutionNumber": "13304"
        },
        {
            "Name": "COSMOS 2432 (719)",
            "Line1": "1 32276U 07052B   24335.65350836 -.00000037  00000+0  00000+0 0  9996",
            "Line2": "2 32276  65.8840 334.9506 0011468 311.4571 237.4549  2.13103247133087",
            "SatelliteNumber": "32276",
            "Classification": "U",
            "LaunchYear": "07",
            "LaunchNumber": "052",
            "PieceOfLaunch": "B",
            "EpochYear": "24",
            "EpochDay": 335.65350836,
            "FirstDerivativeMeanMotion": -3.7e-07,
            "SecondDerivativeMeanMotion": "00000+0",
            "BSTAR": "00000+0",
            "SetNumber": "999",
            "Inclination": 65.884,
            "RAAN": 334.9506,
            "Eccentricity": 0.0011468,
            "ArgumentOfPerigee": 311.4571,
            "MeanAnomaly": 237.4549,
            "MeanMotion": 2.13103247,
            "RevolutionNumber": "13308"
        },
        {
            "Name": "COSMOS 2434 (721)",
            "Line1": "1 32393U 07065A   24335.26696471  .00000080  00000+0  00000+0 0  9992",
            "Line2": "2 32393  64.3152 210.9533 0004129  70.8547 127.8202  2.13101382131753",
            "SatelliteNumber": "32393",
            "Classification": "U",
            "LaunchYear": "07",
            "LaunchNumber": "065",
            "PieceOfLaunch": "A",
            "EpochYear": "24",
            "EpochDay": 335.26696471,
            "FirstDerivativeMeanMotion": 8e-07,
            "SecondDerivativeMeanMotion": "00000+0",
            "BSTAR": "00000+0",
            "SetNumber": "999",
            "Inclination": 64.3152,
            "RAAN": 210.9533,
            "Eccentricity": 0.0004129,
            "ArgumentOfPerigee": 70.8547,
            "MeanAnomaly": 127.8202,
            "MeanMotion": 2.13101382,
            "RevolutionNumber": "13175"
        },
        {
            "Name": "COSMOS 2436 (723)",
            "Line1": "1 32395U 07065C   24335.46756657  .00000081  00000+0  00000+0 0  9990",
            "Line2": "2 32395  64.3238 211.0129 0017359   6.9367 120.3246  2.13100133131717",
            "SatelliteNumber": "32395",
            "Classification": "U",
            "LaunchYear": "07",
            "LaunchNumber": "065",
            "PieceOfLaunch": "C",
            "EpochYear": "24",
            "EpochDay": 335.46756657,
            "FirstDerivativeMeanMotion": 8.1e-07,
            "SecondDerivativeMeanMotion": "00000+0",
            "BSTAR": "00000+0",
            "SetNumber": "999",
            "Inclination": 64.3238,
            "RAAN": 211.0129,
            "Eccentricity": 0.0017359,
            "ArgumentOfPerigee": 6.9367,
            "MeanAnomaly": 120.3246,
            "MeanMotion": 2.13100133,
            "RevolutionNumber": "13171"
        },
        {
            "Name": "COSMOS 2456 (730)",
            "Line1": "1 36111U 09070A   24335.80469406 -.00000004  00000+0  00000+0 0  9995",
            "Line2": "2 36111  64.6944  90.2421 0002344 298.6541 107.1632  2.13103627116466",
            "SatelliteNumber": "36111",
            "Classification": "U",
            "LaunchYear": "09",
            "LaunchNumber": "070",
            "PieceOfLaunch": "A",
            "EpochYear": "24",
            "EpochDay": 335.80469406,
            "FirstDerivativeMeanMotion": -4e-08,
            "SecondDerivativeMeanMotion": "00000+0",
            "BSTAR": "00000+0",
            "SetNumber": "999",
            "Inclination": 64.6944,
            "RAAN": 90.2421,
            "Eccentricity": 0.0002344,
            "ArgumentOfPerigee": 298.6541,
            "MeanAnomaly": 107.1632,
            "MeanMotion": 2.13103627,
            "RevolutionNumber": "11646"
        },
        {
            "Name": "COSMOS 2457 (733)",
            "Line1": "1 36112U 09070B   24335.66129694 -.00000005  00000+0  00000+0 0  9993",
            "Line2": "2 36112  64.6791  90.1021 0005583 156.3268 272.0818  2.13101071116465",
            "SatelliteNumber": "36112",
            "Classification": "U",
            "LaunchYear": "09",
            "LaunchNumber": "070",
            "PieceOfLaunch": "B",
            "EpochYear": "24",
            "EpochDay": 335.66129694,
            "FirstDerivativeMeanMotion": -5e-08,
            "SecondDerivativeMeanMotion": "00000+0",
            "BSTAR": "00000+0",
            "SetNumber": "999",
            "Inclination": 64.6791,
            "RAAN": 90.1021,
            "Eccentricity": 0.0005583,
            "ArgumentOfPerigee": 156.3268,
            "MeanAnomaly": 272.0818,
            "MeanMotion": 2.13101071,
            "RevolutionNumber": "11646"
        },
        {
            "Name": "COSMOS 2460 (732)",
            "Line1": "1 36402U 10007C   24335.21251071 -.00000038  00000+0  00000+0 0  9999",
            "Line2": "2 36402  65.7219 333.4847 0002978 270.5766 167.6000  2.13106289114714",
            "SatelliteNumber": "36402",
            "Classification": "U",
            "LaunchYear": "10",
            "LaunchNumber": "007",
            "PieceOfLaunch": "C",
            "EpochYear": "24",
            "EpochDay": 335.21251071,
            "FirstDerivativeMeanMotion": -3.8e-07,
            "SecondDerivativeMeanMotion": "00000+0",
            "BSTAR": "00000+0",
            "SetNumber": "999",
            "Inclination": 65.7219,
            "RAAN": 333.4847,
            "Eccentricity": 0.0002978,
            "ArgumentOfPerigee": 270.5766,
            "MeanAnomaly": 167.6,
            "MeanMotion": 2.13106289,
            "RevolutionNumber": "11471"
        },
        {
            "Name": "COSMOS 2476 (744)",
            "Line1": "1 37867U 11064A   24335.44584147 -.00000003  00000+0  00000+0 0  9999",
            "Line2": "2 37867  64.9642  91.9509 0023171 232.3568 169.6485  2.13101549101759",
            "SatelliteNumber": "37867",
            "Classification": "U",
            "LaunchYear": "11",
            "LaunchNumber": "064",
            "PieceOfLaunch": "A",
            "EpochYear": "24",
            "EpochDay": 335.44584147,
            "FirstDerivativeMeanMotion": -3e-08,
            "SecondDerivativeMeanMotion": "00000+0",
            "BSTAR": "00000+0",
            "SetNumber": "999",
            "Inclination": 64.9642,
            "RAAN": 91.9509,
            "Eccentricity": 0.0023171,
            "ArgumentOfPerigee": 232.3568,
            "MeanAnomaly": 169.6485,
            "MeanMotion": 2.13101549,
            "RevolutionNumber": "10175"
        },
        {
            "Name": "COSMOS 2477 (745)",
            "Line1": "1 37868U 11064B   24334.91996228 -.00000005  00000+0  00000+0 0  9990",
            "Line2": "2 37868  64.9708  92.0428 0020298 232.6962 304.8260  2.13102967101730",
            "SatelliteNumber": "37868",
            "Classification": "U",
            "LaunchYear": "11",
            "LaunchNumber": "064",
            "PieceOfLaunch": "B",
            "EpochYear": "24",
            "EpochDay": 334.91996228,
            "FirstDerivativeMeanMotion": -5e-08,
            "SecondDerivativeMeanMotion": "00000+0",
            "BSTAR": "00000+0",
            "SetNumber": "999",
            "Inclination": 64.9708,
            "RAAN": 92.0428,
            "Eccentricity": 0.0020298,
            "ArgumentOfPerigee": 232.6962,
            "MeanAnomaly": 304.826,
            "MeanMotion": 2.13102967,
            "RevolutionNumber": "10173"
        },
        {
            "Name": "COSMOS 2475 (743)",
            "Line1": "1 37869U 11064C   24335.71248582 -.00000002  00000+0  00000+0 0  9990",
            "Line2": "2 37869  64.9779  92.0324 0024866 248.4976 134.6823  2.13101617101756",
            "SatelliteNumber": "37869",
            "Classification": "U",
            "LaunchYear": "11",
            "LaunchNumber": "064",
            "PieceOfLaunch": "C",
            "EpochYear": "24",
            "EpochDay": 335.71248582,
            "FirstDerivativeMeanMotion": -2e-08,
            "SecondDerivativeMeanMotion": "00000+0",
            "BSTAR": "00000+0",
            "SetNumber": "999",
            "Inclination": 64.9779,
            "RAAN": 92.0324,
            "Eccentricity": 0.0024866,
            "ArgumentOfPerigee": 248.4976,
            "MeanAnomaly": 134.6823,
            "MeanMotion": 2.13101617,
            "RevolutionNumber": "10175"
        }
    ]
}